CCSDS_OMM_VERS = 2.0
CREATION_DATE  = 
ORIGINATOR     = 

OBJECT_NAME    = ISS (ZARYA)
OBJECT_ID      = 1998-067A
CENTER_NAME    = EARTH
REF_FRAME      = TEME
TIME_SYSTEM    = UTC
MEAN_ELEMENT_THEORY = SGP/SGP4

EPOCH          = 2026-03-16T03:51:18.372384
MEAN_MOTION    = 15.48306205
ECCENTRICITY   = .00063428
INCLINATION    = 51.6332
RA_OF_ASC_NODE = 40.3661
ARG_OF_PERICENTER = 195.9803
MEAN_ANOMALY   = 164.0986

EPHEMERIS_TYPE = 0
CLASSIFICATION_TYPE = U
NORAD_CAT_ID   = 25544
ELEMENT_SET_NO = 999
REV_AT_EPOCH   = 55733
BSTAR          = .16433499E-3
MEAN_MOTION_DOT = .8402E-4
MEAN_MOTION_DDOT = 0

CCSDS_OMM_VERS = 2.0
CREATION_DATE  = 
ORIGINATOR     = 

OBJECT_NAME    = POISK
OBJECT_ID      = 2009-060A
CENTER_NAME    = EARTH
REF_FRAME      = TEME
TIME_SYSTEM    = UTC
MEAN_ELEMENT_THEORY = SGP/SGP4

EPOCH          = 2026-03-16T03:51:18.372384
MEAN_MOTION    = 15.48306205
ECCENTRICITY   = .00063428
INCLINATION    = 51.6332
RA_OF_ASC_NODE = 40.3661
ARG_OF_PERICENTER = 195.9803
MEAN_ANOMALY   = 164.0986

EPHEMERIS_TYPE = 0
CLASSIFICATION_TYPE = U
NORAD_CAT_ID   = 36086
ELEMENT_SET_NO = 999
REV_AT_EPOCH   = 55444
BSTAR          = .16433499E-3
MEAN_MOTION_DOT = .8402E-4
MEAN_MOTION_DDOT = 0

CCSDS_OMM_VERS = 2.0
CREATION_DATE  = 
ORIGINATOR     = 

OBJECT_NAME    = CSS (TIANHE)
OBJECT_ID      = 2021-035A
CENTER_NAME    = EARTH
REF_FRAME      = TEME
TIME_SYSTEM    = UTC
MEAN_ELEMENT_THEORY = SGP/SGP4

EPOCH          = 2026-03-15T15:59:17.332512
MEAN_MOTION    = 15.61005371
ECCENTRICITY   = .00063677
INCLINATION    = 41.4669
RA_OF_ASC_NODE = 171.7890
ARG_OF_PERICENTER = 308.3503
MEAN_ANOMALY   = 51.6764

EPHEMERIS_TYPE = 0
CLASSIFICATION_TYPE = U
NORAD_CAT_ID   = 48274
ELEMENT_SET_NO = 999
REV_AT_EPOCH   = 27854
BSTAR          = .26859999E-3
MEAN_MOTION_DOT = .22966E-3
MEAN_MOTION_DDOT = 0

CCSDS_OMM_VERS = 2.0
CREATION_DATE  = 
ORIGINATOR     = 

OBJECT_NAME    = ISS (NAUKA)
OBJECT_ID      = 2021-066A
CENTER_NAME    = EARTH
REF_FRAME      = TEME
TIME_SYSTEM    = UTC
MEAN_ELEMENT_THEORY = SGP/SGP4

EPOCH          = 2026-03-16T03:51:18.372384
MEAN_MOTION    = 15.48306205
ECCENTRICITY   = .00063428
INCLINATION    = 51.6332
RA_OF_ASC_NODE = 40.3661
ARG_OF_PERICENTER = 195.9803
MEAN_ANOMALY   = 164.0986

EPHEMERIS_TYPE = 0
CLASSIFICATION_TYPE = U
NORAD_CAT_ID   = 49044
ELEMENT_SET_NO = 999
REV_AT_EPOCH   = 55445
BSTAR          = .16433499E-3
MEAN_MOTION_DOT = .8402E-4
MEAN_MOTION_DDOT = 0

CCSDS_OMM_VERS = 2.0
CREATION_DATE  = 
ORIGINATOR     = 

OBJECT_NAME    = FREGAT DEB
OBJECT_ID      = 2011-037PF
CENTER_NAME    = EARTH
REF_FRAME      = TEME
TIME_SYSTEM    = UTC
MEAN_ELEMENT_THEORY = SGP/SGP4

EPOCH          = 2026-03-15T13:35:53.056320
MEAN_MOTION    = 12.40410649
ECCENTRICITY   = .09623821
INCLINATION    = 51.6526
RA_OF_ASC_NODE = 283.1074
ARG_OF_PERICENTER = 72.9535
MEAN_ANOMALY   = 297.4383

EPHEMERIS_TYPE = 0
CLASSIFICATION_TYPE = U
NORAD_CAT_ID   = 49271
ELEMENT_SET_NO = 999
REV_AT_EPOCH   = 21342
BSTAR          = .217638E-1
MEAN_MOTION_DOT = .15293E-3
MEAN_MOTION_DDOT = 0

CCSDS_OMM_VERS = 2.0
CREATION_DATE  = 
ORIGINATOR     = 

OBJECT_NAME    = CSS (WENTIAN)
OBJECT_ID      = 2022-085A
CENTER_NAME    = EARTH
REF_FRAME      = TEME
TIME_SYSTEM    = UTC
MEAN_ELEMENT_THEORY = SGP/SGP4

EPOCH          = 2026-03-15T15:59:17.332512
MEAN_MOTION    = 15.61005371
ECCENTRICITY   = .00063677
INCLINATION    = 41.4669
RA_OF_ASC_NODE = 171.7890
ARG_OF_PERICENTER = 308.3503
MEAN_ANOMALY   = 51.6764

EPHEMERIS_TYPE = 0
CLASSIFICATION_TYPE = U
NORAD_CAT_ID   = 53239
ELEMENT_SET_NO = 999
REV_AT_EPOCH   = 27561
BSTAR          = .26859999E-3
MEAN_MOTION_DOT = .22966E-3
MEAN_MOTION_DDOT = 0

CCSDS_OMM_VERS = 2.0
CREATION_DATE  = 
ORIGINATOR     = 

OBJECT_NAME    = CSS (MENGTIAN)
OBJECT_ID      = 2022-143A
CENTER_NAME    = EARTH
REF_FRAME      = TEME
TIME_SYSTEM    = UTC
MEAN_ELEMENT_THEORY = SGP/SGP4

EPOCH          = 2026-03-15T15:59:17.332512
MEAN_MOTION    = 15.61005371
ECCENTRICITY   = .00063677
INCLINATION    = 41.4669
RA_OF_ASC_NODE = 171.7890
ARG_OF_PERICENTER = 308.3503
MEAN_ANOMALY   = 51.6764

EPHEMERIS_TYPE = 0
CLASSIFICATION_TYPE = U
NORAD_CAT_ID   = 54216
ELEMENT_SET_NO = 999
REV_AT_EPOCH   = 27558
BSTAR          = .26859999E-3
MEAN_MOTION_DOT = .22966E-3
MEAN_MOTION_DDOT = 0

CCSDS_OMM_VERS = 2.0
CREATION_DATE  = 
ORIGINATOR     = 

OBJECT_NAME    = PROGRESS-MS 31
OBJECT_ID      = 2025-146A
CENTER_NAME    = EARTH
REF_FRAME      = TEME
TIME_SYSTEM    = UTC
MEAN_ELEMENT_THEORY = SGP/SGP4

EPOCH          = 2026-03-16T03:51:18.372384
MEAN_MOTION    = 15.48306205
ECCENTRICITY   = .00063428
INCLINATION    = 51.6332
RA_OF_ASC_NODE = 40.3661
ARG_OF_PERICENTER = 195.9803
MEAN_ANOMALY   = 164.0986

EPHEMERIS_TYPE = 0
CLASSIFICATION_TYPE = U
NORAD_CAT_ID   = 64751
ELEMENT_SET_NO = 999
REV_AT_EPOCH   = 55446
BSTAR          = .16433499E-3
MEAN_MOTION_DOT = .8402E-4
MEAN_MOTION_DDOT = 0

CCSDS_OMM_VERS = 2.0
CREATION_DATE  = 
ORIGINATOR     = 

OBJECT_NAME    = TIANZHOU-9
OBJECT_ID      = 2025-149A
CENTER_NAME    = EARTH
REF_FRAME      = TEME
TIME_SYSTEM    = UTC
MEAN_ELEMENT_THEORY = SGP/SGP4

EPOCH          = 2026-03-15T15:59:17.332512
MEAN_MOTION    = 15.61005371
ECCENTRICITY   = .00063677
INCLINATION    = 41.4669
RA_OF_ASC_NODE = 171.7890
ARG_OF_PERICENTER = 308.3503
MEAN_ANOMALY   = 51.6764

EPHEMERIS_TYPE = 0
CLASSIFICATION_TYPE = U
NORAD_CAT_ID   = 64786
ELEMENT_SET_NO = 999
REV_AT_EPOCH   = 27559
BSTAR          = .26859999E-3
MEAN_MOTION_DOT = .22966E-3
MEAN_MOTION_DDOT = 0

CCSDS_OMM_VERS = 2.0
CREATION_DATE  = 
ORIGINATOR     = 

OBJECT_NAME    = PROGRESS-MS 32
OBJECT_ID      = 2025-204A
CENTER_NAME    = EARTH
REF_FRAME      = TEME
TIME_SYSTEM    = UTC
MEAN_ELEMENT_THEORY = SGP/SGP4

EPOCH          = 2026-03-16T03:51:18.372384
MEAN_MOTION    = 15.48306205
ECCENTRICITY   = .00063428
INCLINATION    = 51.6332
RA_OF_ASC_NODE = 40.3661
ARG_OF_PERICENTER = 195.9803
MEAN_ANOMALY   = 164.0986

EPHEMERIS_TYPE = 0
CLASSIFICATION_TYPE = U
NORAD_CAT_ID   = 65586
ELEMENT_SET_NO = 999
REV_AT_EPOCH   = 55450
BSTAR          = .16433499E-3
MEAN_MOTION_DOT = .8402E-4
MEAN_MOTION_DDOT = 0

CCSDS_OMM_VERS = 2.0
CREATION_DATE  = 
ORIGINATOR     = 

OBJECT_NAME    = YOTSUBA-KULOVER
OBJECT_ID      = 1998-067XN
CENTER_NAME    = EARTH
REF_FRAME      = TEME
TIME_SYSTEM    = UTC
MEAN_ELEMENT_THEORY = SGP/SGP4

EPOCH          = 2026-03-16T02:02:50.164512
MEAN_MOTION    = 15.83706108
ECCENTRICITY   = .0004984
INCLINATION    = 51.6209
RA_OF_ASC_NODE = 24.0437
ARG_OF_PERICENTER = 114.4520
MEAN_ANOMALY   = 245.7003

EPHEMERIS_TYPE = 0
CLASSIFICATION_TYPE = U
NORAD_CAT_ID   = 65941
ELEMENT_SET_NO = 999
REV_AT_EPOCH   = 2451
BSTAR          = .1115703E-2
MEAN_MOTION_DOT = .258905E-2
MEAN_MOTION_DDOT = 0

CCSDS_OMM_VERS = 2.0
CREATION_DATE  = 
ORIGINATOR     = 

OBJECT_NAME    = E-KAGAKU-1
OBJECT_ID      = 1998-067XQ
CENTER_NAME    = EARTH
REF_FRAME      = TEME
TIME_SYSTEM    = UTC
MEAN_ELEMENT_THEORY = SGP/SGP4

EPOCH          = 2026-03-16T02:11:36.857184
MEAN_MOTION    = 15.83244860
ECCENTRICITY   = .00055269
INCLINATION    = 51.6233
RA_OF_ASC_NODE = 24.1042
ARG_OF_PERICENTER = 118.8696
MEAN_ANOMALY   = 241.2862

EPHEMERIS_TYPE = 0
CLASSIFICATION_TYPE = U
NORAD_CAT_ID   = 65943
ELEMENT_SET_NO = 999
REV_AT_EPOCH   = 2451
BSTAR          = .10885021E-2
MEAN_MOTION_DOT = .246814E-2
MEAN_MOTION_DDOT = 0

