ISS (ZARYA)             
1 25544U 98067A   26075.16062931  .00008402  00000+0  16433-3 0  9991
2 25544  51.6332  40.3661 0006342 195.9803 164.0986 15.48306205557333
POISK                   
1 36086U 09060A   26075.16062931  .00008402  00000+0  16433-3 0  9999
2 36086  51.6332  40.3661 0006342 195.9803 164.0986 15.48306205554445
CSS (TIANHE)            
1 48274U 21035A   26074.66617283  .00022966  00000+0  26860-3 0  9993
2 48274  41.4669 171.7890 0006367 308.3503  51.6764 15.61005371278548
ISS (NAUKA)             
1 49044U 21066A   26075.16062931  .00008402  00000+0  16433-3 0  9997
2 49044  51.6332  40.3661 0006342 195.9803 164.0986 15.48306205554454
FREGAT DEB              
1 49271U 11037PF  26074.56658630  .00015293  00000+0  21764-1 0  9993
2 49271  51.6526 283.1074 0962382  72.9535 297.4383 12.40410649213425
CSS (WENTIAN)           
1 53239U 22085A   26074.66617283  .00022966  00000+0  26860-3 0  9996
2 53239  41.4669 171.7890 0006367 308.3503  51.6764 15.61005371275610
CSS (MENGTIAN)          
1 54216U 22143A   26074.66617283  .00022966  00000+0  26860-3 0  9997
2 54216  41.4669 171.7890 0006367 308.3503  51.6764 15.61005371275582
PROGRESS-MS 31          
1 64751U 25146A   26075.16062931  .00008402  00000+0  16433-3 0  9992
2 64751  51.6332  40.3661 0006342 195.9803 164.0986 15.48306205554467
TIANZHOU-9              
1 64786U 25149A   26074.66617283  .00022966  00000+0  26860-3 0  9999
2 64786  41.4669 171.7890 0006367 308.3503  51.6764 15.61005371275596
PROGRESS-MS 32          
1 65586U 25204A   26075.16062931  .00008402  00000+0  16433-3 0  9994
2 65586  51.6332  40.3661 0006342 195.9803 164.0986 15.48306205554509
YOTSUBA-KULOVER         
1 65941U 98067XN  26075.08530283  .00258905  00000+0  11157-2 0  9999
2 65941  51.6209  24.0437 0004984 114.4520 245.7003 15.83706108 24514
E-KAGAKU-1              
1 65943U 98067XQ  26075.09139881  .00246814  00000+0  10885-2 0  9994
2 65943  51.6233  24.1042 0005526 118.8696 241.2862 15.83244860 24517
